{"type": "FeatureCollection", "features": [ {"type": "Feature", "properties": {"norad_id": 34117, "name": "COSMOS 2251 DEB", "group": "cosmos-2251-debris", "lat": -24.37063039430411, "lon": -8.061624882256131, "alt_km": 772.7946438569152, "timestamp": "2025-12-04T07:39:36.525624+00:00", "meta": {"OBJECT_NAME": "COSMOS 2251 DEB", "OBJECT_ID": "1993-036KN", "EPOCH": "2025-12-03T18:26:19.633920", "MEAN_MOTION": 14.39953001, "ECCENTRICITY": 0.00543864, "INCLINATION": 74.0405, "RA_OF_ASC_NODE": 0.404, "ARG_OF_PERICENTER": 79.5109, "MEAN_ANOMALY": 281.2167, "EPHEMERIS_TYPE": 0, "CLASSIFICATION_TYPE": "U", "NORAD_CAT_ID": 34117, "ELEMENT_SET_NO": 999, "REV_AT_EPOCH": 87994, "BSTAR": 0.00092009462, "MEAN_MOTION_DOT": 2.921e-05, "MEAN_MOTION_DDOT": 0}, "tle": {"line1": "1 34117U 93036KN  25337.76828280  .00002921  00000+0  92009-3 0  9994", "line2": "2 34117  74.0405   0.4040 0054386  79.5109 281.2167 14.39953001879942"}}, "geometry": {"type": "Point", "coordinates": [-8.061624882256131, -24.37063039430411]}}, {"type": "Feature", "properties": {"norad_id": 34118, "name": "COSMOS 2251 DEB", "group": "cosmos-2251-debris", "lat": -38.60906853317316, "lon": 99.62521222684266, "alt_km": 615.288775694391, "timestamp": "2025-12-04T07:39:36.525633+00:00", "meta": {"OBJECT_NAME": "COSMOS 2251 DEB", "OBJECT_ID": "1993-036KP", "EPOCH": "2025-12-03T21:20:49.003584", "MEAN_MOTION": 14.93343048, "ECCENTRICITY": 0.00600308, "INCLINATION": 73.9531, "RA_OF_ASC_NODE": 267.2057, "ARG_OF_PERICENTER": 99.6955, "MEAN_ANOMALY": 330.8857, "EPHEMERIS_TYPE": 0, "CLASSIFICATION_TYPE": "U", "NORAD_CAT_ID": 34118, "ELEMENT_SET_NO": 999, "REV_AT_EPOCH": 89044, "BSTAR": 0.0040226513, "MEAN_MOTION_DOT": 0.00043931, "MEAN_MOTION_DDOT": 0}, "tle": {"line1": "1 34118U 93036KP  25337.88945606  .00043931  00000+0  40227-2 0  9990", "line2": "2 34118  73.9531 267.2057 0060030  99.6955 330.8857 14.93343048890446"}}, "geometry": {"type": "Point", "coordinates": [99.62521222684266, -38.60906853317316]}}, {"type": "Feature", "properties": {"norad_id": 34120, "name": "COSMOS 2251 DEB", "group": "cosmos-2251-debris", "lat": -73.12649677386533, "lon": 121.97246988343541, "alt_km": 1025.4857242921498, "timestamp": "2025-12-04T07:39:36.525642+00:00", "meta": {"OBJECT_NAME": "COSMOS 2251 DEB", "OBJECT_ID": "1993-036KR", "EPOCH": "2025-12-03T18:38:56.966208", "MEAN_MOTION": 13.98666587, "ECCENTRICITY": 0.01815838, "INCLINATION": 73.9918, "RA_OF_ASC_NODE": 231.7442, "ARG_OF_PERICENTER": 61.454, "MEAN_ANOMALY": 355.3729, "EPHEMERIS_TYPE": 0, "CLASSIFICATION_TYPE": "U", "NORAD_CAT_ID": 34120, "ELEMENT_SET_NO": 999, "REV_AT_EPOCH": 85855, "BSTAR": 0.0005267997, "MEAN_MOTION_DOT": 8.48e-06, "MEAN_MOTION_DDOT": 0}, "tle": {"line1": "1 34120U 93036KR  25337.77704822  .00000848  00000+0  52680-3 0  9991", "line2": "2 34120  73.9918 231.7442 0181583  61.4540 355.3729 13.98666587858552"}}, "geometry": {"type": "Point", "coordinates": [121.97246988343541, -73.12649677386533]}}, {"type": "Feature", "properties": {"norad_id": 34121, "name": "COSMOS 2251 DEB", "group": "cosmos-2251-debris", "lat": -35.058835674849504, "lon": 99.97754654618878, "alt_km": 753.3898538756393, "timestamp": "2025-12-04T07:39:36.525652+00:00", "meta": {"OBJECT_NAME": "COSMOS 2251 DEB", "OBJECT_ID": "1993-036KS", "EPOCH": "2025-12-03T16:22:38.788032", "MEAN_MOTION": 13.91880225, "ECCENTRICITY": 0.02397358, "INCLINATION": 73.9915, "RA_OF_ASC_NODE": 112.6905, "ARG_OF_PERICENTER": 320.0883, "MEAN_ANOMALY": 53.566, "EPHEMERIS_TYPE": 0, "CLASSIFICATION_TYPE": "U", "NORAD_CAT_ID": 34121, "ELEMENT_SET_NO": 999, "REV_AT_EPOCH": 84999, "BSTAR": 0.0014175875, "MEAN_MOTION_DOT": 2.259e-05, "MEAN_MOTION_DDOT": 0}, "tle": {"line1": "1 34121U 93036KS  25337.68239338  .00002259  00000+0  14176-2 0  9992", "line2": "2 34121  73.9915 112.6905 0239735 320.0883  53.5660 13.91880225849997"}}, "geometry": {"type": "Point", "coordinates": [99.97754654618878, -35.058835674849504]}}, {"type": "Feature", "properties": {"norad_id": 34122, "name": "COSMOS 2251 DEB", "group": "cosmos-2251-debris", "lat": 17.604980405694818, "lon": -50.38038713932329, "alt_km": 713.2577329862861, "timestamp": "2025-12-04T07:39:36.525661+00:00", "meta": {"OBJECT_NAME": "COSMOS 2251 DEB", "OBJECT_ID": "1993-036KT", "EPOCH": "2025-12-03T17:52:34.470624", "MEAN_MOTION": 14.64855616, "ECCENTRICITY": 0.00838543, "INCLINATION": 74.0347, "RA_OF_ASC_NODE": 135.9358, "ARG_OF_PERICENTER": 35.3696, "MEAN_ANOMALY": 337.9461, "EPHEMERIS_TYPE": 0, "CLASSIFICATION_TYPE": "U", "NORAD_CAT_ID": 34122, "ELEMENT_SET_NO": 999, "REV_AT_EPOCH": 88553, "BSTAR": 0.0016338258, "MEAN_MOTION_DOT": 9.17e-05, "MEAN_MOTION_DDOT": 0}, "tle": {"line1": "1 34122U 93036KT  25337.74484341  .00009170  00000+0  16338-2 0  9997", "line2": "2 34122  74.0347 135.9358 0083854  35.3696 337.9461 14.64855616885531"}}, "geometry": {"type": "Point", "coordinates": [-50.38038713932329, 17.604980405694818]}}, {"type": "Feature", "properties": {"norad_id": 34127, "name": "COSMOS 2251 DEB", "group": "cosmos-2251-debris", "lat": 6.910265459801682, "lon": 61.05064838135706, "alt_km": 810.952650115516, "timestamp": "2025-12-04T07:39:36.525670+00:00", "meta": {"OBJECT_NAME": "COSMOS 2251 DEB", "OBJECT_ID": "1993-036KY", "EPOCH": "2025-12-03T11:34:32.989728", "MEAN_MOTION": 14.31380495, "ECCENTRICITY": 0.01146152, "INCLINATION": 74.1802, "RA_OF_ASC_NODE": 60.5926, "ARG_OF_PERICENTER": 262.7201, "MEAN_ANOMALY": 112.7932, "EPHEMERIS_TYPE": 0, "CLASSIFICATION_TYPE": "U", "NORAD_CAT_ID": 34127, "ELEMENT_SET_NO": 999, "REV_AT_EPOCH": 86639, "BSTAR": 0.0029195816, "MEAN_MOTION_DOT": 8.301e-05, "MEAN_MOTION_DDOT": 0}, "tle": {"line1": "1 34127U 93036KY  25337.48232627  .00008301  00000+0  29196-2 0  9992", "line2": "2 34127  74.1802  60.5926 0114615 262.7201 112.7932 14.31380495866392"}}, "geometry": {"type": "Point", "coordinates": [61.05064838135706, 6.910265459801682]}}, {"type": "Feature", "properties": {"norad_id": 34128, "name": "COSMOS 2251 DEB", "group": "cosmos-2251-debris", "lat": -73.96721839068785, "lon": -133.0336140511206, "alt_km": 589.2767017950518, "timestamp": "2025-12-04T07:39:36.525679+00:00", "meta": {"OBJECT_NAME": "COSMOS 2251 DEB", "OBJECT_ID": "1993-036KZ", "EPOCH": "2025-12-03T08:37:28.644384", "MEAN_MOTION": 15.00393553, "ECCENTRICITY": 0.0026502, "INCLINATION": 73.9994, "RA_OF_ASC_NODE": 315.8558, "ARG_OF_PERICENTER": 69.3798, "MEAN_ANOMALY": 59.3304, "EPHEMERIS_TYPE": 0, "CLASSIFICATION_TYPE": "U", "NORAD_CAT_ID": 34128, "ELEMENT_SET_NO": 999, "REV_AT_EPOCH": 89026, "BSTAR": 0.0026759, "MEAN_MOTION_DOT": 0.00034003, "MEAN_MOTION_DDOT": 0}, "tle": {"line1": "1 34128U 93036KZ  25337.35935931  .00034003  00000+0  26759-2 0  9997", "line2": "2 34128  73.9994 315.8558 0026502  69.3798  59.3304 15.00393553890266"}}, "geometry": {"type": "Point", "coordinates": [-133.0336140511206, -73.96721839068785]}}, {"type": "Feature", "properties": {"norad_id": 34129, "name": "COSMOS 2251 DEB", "group": "cosmos-2251-debris", "lat": -49.57221465966198, "lon": -164.36225595704573, "alt_km": 670.2900968597469, "timestamp": "2025-12-04T07:39:36.525689+00:00", "meta": {"OBJECT_NAME": "COSMOS 2251 DEB", "OBJECT_ID": "1993-036LA", "EPOCH": "2025-12-03T19:13:21.072576", "MEAN_MOTION": 14.75493008, "ECCENTRICITY": 0.00326859, "INCLINATION": 74.0352, "RA_OF_ASC_NODE": 357.0152, "ARG_OF_PERICENTER": 81.6008, "MEAN_ANOMALY": 278.8869, "EPHEMERIS_TYPE": 0, "CLASSIFICATION_TYPE": "U", "NORAD_CAT_ID": 34129, "ELEMENT_SET_NO": 999, "REV_AT_EPOCH": 61166, "BSTAR": 0.0022932509, "MEAN_MOTION_DOT": 0.00015746, "MEAN_MOTION_DDOT": 0}, "tle": {"line1": "1 34129U 93036LA  25337.80093834  .00015746  00000+0  22933-2 0  9998", "line2": "2 34129  74.0352 357.0152 0032685  81.6008 278.8869 14.75493008611661"}}, "geometry": {"type": "Point", "coordinates": [-164.36225595704573, -49.57221465966198]}}, {"type": "Feature", "properties": {"norad_id": 34136, "name": "COSMOS 2251 DEB", "group": "cosmos-2251-debris", "lat": -67.53936751609719, "lon": -76.887022655731, "alt_km": 614.6935923664578, "timestamp": "2025-12-04T07:39:36.525698+00:00", "meta": {"OBJECT_NAME": "COSMOS 2251 DEB", "OBJECT_ID": "1993-036LH", "EPOCH": "2025-12-03T16:28:43.667328", "MEAN_MOTION": 14.79958477, "ECCENTRICITY": 0.00865942, "INCLINATION": 74.0219, "RA_OF_ASC_NODE": 60.4853, "ARG_OF_PERICENTER": 185.8072, "MEAN_ANOMALY": 298.4779, "EPHEMERIS_TYPE": 0, "CLASSIFICATION_TYPE": "U", "NORAD_CAT_ID": 34136, "ELEMENT_SET_NO": 999, "REV_AT_EPOCH": 89876, "BSTAR": 0.0008796771, "MEAN_MOTION_DOT": 7.058e-05, "MEAN_MOTION_DDOT": 0}, "tle": {"line1": "1 34136U 93036LH  25337.68661652  .00007058  00000+0  87968-3 0  9998", "line2": "2 34136  74.0219  60.4853 0086594 185.8072 298.4779 14.79958477898766"}}, "geometry": {"type": "Point", "coordinates": [-76.887022655731, -67.53936751609719]}}, {"type": "Feature", "properties": {"norad_id": 34139, "name": "COSMOS 2251 DEB", "group": "cosmos-2251-debris", "lat": -65.81931931151341, "lon": 129.73139239122798, "alt_km": 704.1258408003505, "timestamp": "2025-12-04T07:39:36.525707+00:00", "meta": {"OBJECT_NAME": "COSMOS 2251 DEB", "OBJECT_ID": "1993-036LL", "EPOCH": "2025-12-03T20:53:10.226400", "MEAN_MOTION": 14.5884695, "ECCENTRICITY": 0.00426405, "INCLINATION": 74.0313, "RA_OF_ASC_NODE": 270.9645, "ARG_OF_PERICENTER": 343.5071, "MEAN_ANOMALY": 71.8719, "EPHEMERIS_TYPE": 0, "CLASSIFICATION_TYPE": "U", "NORAD_CAT_ID": 34139, "ELEMENT_SET_NO": 999, "REV_AT_EPOCH": 88020, "BSTAR": 0.0025933306, "MEAN_MOTION_DOT": 0.00012282, "MEAN_MOTION_DDOT": 0}, "tle": {"line1": "1 34139U 93036LL  25337.87025725  .00012282  00000+0  25933-2 0  9995", "line2": "2 34139  74.0313 270.9645 0042640 343.5071  71.8719 14.58846950880203"}}, "geometry": {"type": "Point", "coordinates": [129.73139239122798, -65.81931931151341]}}]}